FENGYUN 1C DEB          
1 37415U 99025EGH 17345.76715463  .00000190  00000-0  27180-3 0  9995
2 37415  98.8910 343.3780 0289352  77.5393 285.7955 13.50278085514738
